[{"OBJECT_NAME":"ONEWEB-0151","OBJECT_ID":"2021-025AA","EPOCH":"2025-09-21T05:48:04.072320","MEAN_MOTION":13.13471436,"ECCENTRICITY":0.00016614,"INCLINATION":87.9046,"RA_OF_ASC_NODE":13.6482,"ARG_OF_PERICENTER":104.6727,"MEAN_ANOMALY":255.4586,"EPHEMERIS_TYPE":0,"CLASSIFICATION_TYPE":"U","NORAD_CAT_ID":48066,"ELEMENT_SET_NO":999,"REV_AT_EPOCH":21828,"BSTAR":-0.00010988533,"MEAN_MOTION_DOT":-2.7e-7,"MEAN_MOTION_DDOT":0},{"OBJECT_NAME":"ONEWEB-0170","OBJECT_ID":"2021-025AB","EPOCH":"2025-09-21T06:00:16.027200","MEAN_MOTION":13.13468999,"ECCENTRICITY":0.00012513,"INCLINATION":87.9048,"RA_OF_ASC_NODE":13.6524,"ARG_OF_PERICENTER":98.7174,"MEAN_ANOMALY":261.4097,"EPHEMERIS_TYPE":0,"CLASSIFICATION_TYPE":"U","NORAD_CAT_ID":48067,"ELEMENT_SET_NO":999,"REV_AT_EPOCH":21824,"BSTAR":-0.00057761837,"MEAN_MOTION_DOT":-1.98e-6,"MEAN_MOTION_DDOT":0},{"OBJECT_NAME":"ONEWEB-0168","OBJECT_ID":"2021-025AC","EPOCH":"2025-09-21T05:38:19.051872","MEAN_MOTION":13.13468582,"ECCENTRICITY":0.00018698,"INCLINATION":87.9047,"RA_OF_ASC_NODE":13.6376,"ARG_OF_PERICENTER":104.1423,"MEAN_ANOMALY":255.9914,"EPHEMERIS_TYPE":0,"CLASSIFICATION_TYPE":"U","NORAD_CAT_ID":48068,"ELEMENT_SET_NO":999,"REV_AT_EPOCH":21825,"BSTAR":-9.8143294e-5,"MEAN_MOTION_DOT":-2.3e-7,"MEAN_MOTION_DDOT":0},{"OBJECT_NAME":"ONEWEB-0173","OBJECT_ID":"2021-025AD","EPOCH":"2025-09-21T05:26:07.725984","MEAN_MOTION":13.13471091,"ECCENTRICITY":0.00018777,"INCLINATION":87.9048,"RA_OF_ASC_NODE":13.6475,"ARG_OF_PERICENTER":114.3174,"MEAN_ANOMALY":245.8152,"EPHEMERIS_TYPE":0,"CLASSIFICATION_TYPE":"U","NORAD_CAT_ID":48069,"ELEMENT_SET_NO":999,"REV_AT_EPOCH":21849,"BSTAR":0.0008436775,"MEAN_MOTION_DOT":3.21e-6,"MEAN_MOTION_DDOT":0},{"OBJECT_NAME":"ONEWEB-0171","OBJECT_ID":"2021-025AE","EPOCH":"2025-09-21T06:19:45.651648","MEAN_MOTION":13.13471595,"ECCENTRICITY":0.00016616,"INCLINATION":87.9036,"RA_OF_ASC_NODE":13.6755,"ARG_OF_PERICENTER":103.5797,"MEAN_ANOMALY":256.5517,"EPHEMERIS_TYPE":0,"CLASSIFICATION_TYPE":"U","NORAD_CAT_ID":48070,"ELEMENT_SET_NO":999,"REV_AT_EPOCH":21831,"BSTAR":-0.00059397111,"MEAN_MOTION_DOT":-2.04e-6,"MEAN_MOTION_DDOT":0},{"OBJECT_NAME":"ONEWEB-0172","OBJECT_ID":"2021-025AF","EPOCH":"2025-09-21T05:50:30.540192","MEAN_MOTION":13.13469055,"ECCENTRICITY":0.00017138,"INCLINATION":87.9048,"RA_OF_ASC_NODE":13.6484,"ARG_OF_PERICENTER":106.3266,"MEAN_ANOMALY":253.8051,"EPHEMERIS_TYPE":0,"CLASSIFICATION_TYPE":"U","NORAD_CAT_ID":48071,"ELEMENT_SET_NO":999,"REV_AT_EPOCH":21920,"BSTAR":-0.00075877192,"MEAN_MOTION_DOT":-2.64e-6,"MEAN_MOTION_DDOT":0},{"OBJECT_NAME":"ONEWEB-0174","OBJECT_ID":"2021-025AG","EPOCH":"2025-09-21T05:23:40.863264","MEAN_MOTION":13.13468207,"ECCENTRICITY":0.00018982,"INCLINATION":87.9043,"RA_OF_ASC_NODE":13.6637,"ARG_OF_PERICENTER":100.2766,"MEAN_ANOMALY":259.8577,"EPHEMERIS_TYPE":0,"CLASSIFICATION_TYPE":"U","NORAD_CAT_ID":48072,"ELEMENT_SET_NO":999,"REV_AT_EPOCH":21852,"BSTAR":0.00039715645,"MEAN_MOTION_DOT":1.58e-6,"MEAN_MOTION_DDOT":0},{"OBJECT_NAME":"ONEWEB-0175","OBJECT_ID":"2021-025AH","EPOCH":"2025-09-21T06:07:34.048416","MEAN_MOTION":13.13471206,"ECCENTRICITY":0.00014437,"INCLINATION":87.9046,"RA_OF_ASC_NODE":13.6226,"ARG_OF_PERICENTER":108.0005,"MEAN_ANOMALY":252.1281,"EPHEMERIS_TYPE":0,"CLASSIFICATION_TYPE":"U","NORAD_CAT_ID":48073,"ELEMENT_SET_NO":999,"REV_AT_EPOCH":21818,"BSTAR":-0.00069872852,"MEAN_MOTION_DOT":-2.42e-6,"MEAN_MOTION_DDOT":0},{"OBJECT_NAME":"ONEWEB-0177","OBJECT_ID":"2021-025AJ","EPOCH":"2025-09-21T06:24:37.476288","MEAN_MOTION":13.13471074,"ECCENTRICITY":0.00019543,"INCLINATION":87.9048,"RA_OF_ASC_NODE":13.6371,"ARG_OF_PERICENTER":104.6908,"MEAN_ANOMALY":255.4438,"EPHEMERIS_TYPE":0,"CLASSIFICATION_TYPE":"U","NORAD_CAT_ID":48074,"ELEMENT_SET_NO":999,"REV_AT_EPOCH":21837,"BSTAR":-0.00069196754,"MEAN_MOTION_DOT":-2.4e-6,"MEAN_MOTION_DDOT":0},{"OBJECT_NAME":"ONEWEB-0178","OBJECT_ID":"2021-025AK","EPOCH":"2025-09-21T05:01:56.419392","MEAN_MOTION":13.13471721,"ECCENTRICITY":0.00016875,"INCLINATION":87.9048,"RA_OF_ASC_NODE":13.6948,"ARG_OF_PERICENTER":110.0546,"MEAN_ANOMALY":250.0765,"EPHEMERIS_TYPE":0,"CLASSIFICATION_TYPE":"U","NORAD_CAT_ID":48075,"ELEMENT_SET_NO":999,"REV_AT_EPOCH":21841,"BSTAR":0.00081237692,"MEAN_MOTION_DOT":3.09e-6,"MEAN_MOTION_DDOT":0},{"OBJECT_NAME":"ONEWEB-0108","OBJECT_ID":"2021-025AL","EPOCH":"2025-09-21T05:52:56.796384","MEAN_MOTION":13.13470548,"ECCENTRICITY":0.00017907,"INCLINATION":87.9044,"RA_OF_ASC_NODE":13.6335,"ARG_OF_PERICENTER":92.6379,"MEAN_ANOMALY":267.4955,"EPHEMERIS_TYPE":0,"CLASSIFICATION_TYPE":"U","NORAD_CAT_ID":48076,"ELEMENT_SET_NO":999,"REV_AT_EPOCH":21834,"BSTAR":-0.00042126755,"MEAN_MOTION_DOT":-1.41e-6,"MEAN_MOTION_DDOT":0},{"OBJECT_NAME":"ONEWEB-0169","OBJECT_ID":"2021-025AM","EPOCH":"2025-09-21T06:39:15.249312","MEAN_MOTION":13.13471849,"ECCENTRICITY":0.0001817,"INCLINATION":87.9048,"RA_OF_ASC_NODE":13.6504,"ARG_OF_PERICENTER":93.5445,"MEAN_ANOMALY":266.5892,"EPHEMERIS_TYPE":0,"CLASSIFICATION_TYPE":"U","NORAD_CAT_ID":48077,"ELEMENT_SET_NO":999,"REV_AT_EPOCH":21700,"BSTAR":0.00015504107,"MEAN_MOTION_DOT":6.9e-7,"MEAN_MOTION_DDOT":0},{"OBJECT_NAME":"ONEWEB-0176","OBJECT_ID":"2021-031A","EPOCH":"2025-09-21T04:17:22.678080","MEAN_MOTION":13.14502664,"ECCENTRICITY":0.00017622,"INCLINATION":87.908,"RA_OF_ASC_NODE":343.2671,"ARG_OF_PERICENTER":104.7317,"MEAN_ANOMALY":255.4008,"EPHEMERIS_TYPE":0,"CLASSIFICATION_TYPE":"U","NORAD_CAT_ID":48210,"ELEMENT_SET_NO":999,"REV_AT_EPOCH":21297,"BSTAR":-0.00089410767,"MEAN_MOTION_DOT":-3.19e-6,"MEAN_MOTION_DDOT":0},{"OBJECT_NAME":"ONEWEB-0184","OBJECT_ID":"2021-031B","EPOCH":"2025-09-21T05:28:10.369056","MEAN_MOTION":13.14501766,"ECCENTRICITY":0.00013833,"INCLINATION":87.9086,"RA_OF_ASC_NODE":343.23,"ARG_OF_PERICENTER":128.0684,"MEAN_ANOMALY":232.0571,"EPHEMERIS_TYPE":0,"CLASSIFICATION_TYPE":"U","NORAD_CAT_ID":48211,"ELEMENT_SET_NO":999,"REV_AT_EPOCH":21295,"BSTAR":0.00027922047,"MEAN_MOTION_DOT":1.16e-6,"MEAN_MOTION_DDOT":0},{"OBJECT_NAME":"ONEWEB-0179","OBJECT_ID":"2021-031C","EPOCH":"2025-09-21T04:45:54.980064","MEAN_MOTION":13.14503702,"ECCENTRICITY":0.00019266,"INCLINATION":87.9079,"RA_OF_ASC_NODE":343.2512,"ARG_OF_PERICENTER":100.9062,"MEAN_ANOMALY":259.2284,"EPHEMERIS_TYPE":0,"CLASSIFICATION_TYPE":"U","NORAD_CAT_ID":48212,"ELEMENT_SET_NO":999,"REV_AT_EPOCH":21299,"BSTAR":0.00054970996,"MEAN_MOTION_DOT":2.17e-6,"MEAN_MOTION_DDOT":0},{"OBJECT_NAME":"ONEWEB-0180","OBJECT_ID":"2021-031D","EPOCH":"2025-09-21T05:32:43.720512","MEAN_MOTION":13.14504169,"ECCENTRICITY":0.00019365,"INCLINATION":87.9088,"RA_OF_ASC_NODE":343.2351,"ARG_OF_PERICENTER":108.7714,"MEAN_ANOMALY":251.3626,"EPHEMERIS_TYPE":0,"CLASSIFICATION_TYPE":"U","NORAD_CAT_ID":48213,"ELEMENT_SET_NO":999,"REV_AT_EPOCH":21288,"BSTAR":0.00017725206,"MEAN_MOTION_DOT":7.8e-7,"MEAN_MOTION_DDOT":0}]
