ONEWEB-0151             
1 48066U 21025AA  25264.24171380 -.00000027  00000+0 -10989-3 0  9999
2 48066  87.9046  13.6482 0001661 104.6727 255.4586 13.13471436218284
ONEWEB-0170             
1 48067U 21025AB  25264.25018550 -.00000198  00000+0 -57762-3 0  9999
2 48067  87.9048  13.6524 0001251  98.7174 261.4097 13.13468999218248
ONEWEB-0168             
1 48068U 21025AC  25264.23494273 -.00000023  00000+0 -98143-4 0  9994
2 48068  87.9047  13.6376 0001869 104.1423 255.9914 13.13468582218252
ONEWEB-0173             
1 48069U 21025AD  25264.22647831  .00000321  00000+0  84368-3 0  9996
2 48069  87.9048  13.6475 0001877 114.3174 245.8152 13.13471091218496
ONEWEB-0171             
1 48070U 21025AE  25264.26372282 -.00000204  00000+0 -59397-3 0  9993
2 48070  87.9036  13.6755 0001661 103.5797 256.5517 13.13471595218312
ONEWEB-0172             
1 48071U 21025AF  25264.24340903 -.00000264  00000+0 -75877-3 0  9994
2 48071  87.9048  13.6484 0001713 106.3266 253.8051 13.13469055219205
ONEWEB-0174             
1 48072U 21025AG  25264.22477851  .00000158  00000+0  39716-3 0  9998
2 48072  87.9043  13.6637 0001898 100.2766 259.8577 13.13468207218524
ONEWEB-0175             
1 48073U 21025AH  25264.25525519 -.00000242  00000+0 -69873-3 0  9990
2 48073  87.9046  13.6226 0001443 108.0005 252.1281 13.13471206218183
ONEWEB-0177             
1 48074U 21025AJ  25264.26710042 -.00000240  00000+0 -69197-3 0  9996
2 48074  87.9048  13.6371 0001954 104.6908 255.4438 13.13471074218372
ONEWEB-0178             
1 48075U 21025AK  25264.20968078  .00000309  00000+0  81238-3 0  9999
2 48075  87.9048  13.6948 0001687 110.0546 250.0765 13.13471721218413
ONEWEB-0108             
1 48076U 21025AL  25264.24510181 -.00000141  00000+0 -42127-3 0  9992
2 48076  87.9044  13.6335 0001790  92.6379 267.4955 13.13470548218345
ONEWEB-0169             
1 48077U 21025AM  25264.27725983  .00000069  00000+0  15504-3 0  9990
2 48077  87.9048  13.6504 0001817  93.5445 266.5892 13.13471849217009
ONEWEB-0176             
1 48210U 21031A   25264.17873470 -.00000319  00000+0 -89411-3 0  9998
2 48210  87.9080 343.2671 0001762 104.7317 255.4008 13.14502664212971
ONEWEB-0184             
1 48211U 21031B   25264.22789779  .00000116  00000+0  27922-3 0  9995
2 48211  87.9086 343.2300 0001383 128.0684 232.0571 13.14501766212958
ONEWEB-0179             
1 48212U 21031C   25264.19855301  .00000217  00000+0  54971-3 0  9993
2 48212  87.9079 343.2512 0001926 100.9062 259.2284 13.14503702212996
ONEWEB-0180             
1 48213U 21031D   25264.23106158  .00000078  00000+0  17725-3 0  9999
2 48213  87.9088 343.2351 0001936 108.7714 251.3626 13.14504169212888
